[{"OBJECT_NAME":"STARLINK-3587","OBJECT_ID":"2022-022AS","EPOCH":"2026-03-09T22:48:17.867520","MEAN_MOTION":15.08840626,"ECCENTRICITY":0.00014025,"INCLINATION":53.2202,"RA_OF_ASC_NODE":357.9501,"ARG_OF_PERICENTER":108.976,"MEAN_ANOMALY":251.1384,"EPHEMERIS_TYPE":0,"CLASSIFICATION_TYPE":"U","NORAD_CAT_ID":51892,"ELEMENT_SET_NO":999,"REV_AT_EPOCH":22328,"BSTAR":-3.0248478e-5,"MEAN_MOTION_DOT":-7.69e-6,"MEAN_MOTION_DDOT":0},{"OBJECT_NAME":"COSMOS 2251 DEB","OBJECT_ID":"1993-036ACA","EPOCH":"2026-03-09T23:22:42.926880","MEAN_MOTION":15.11397769,"ECCENTRICITY":0.00294457,"INCLINATION":73.9915,"RA_OF_ASC_NODE":264.707,"ARG_OF_PERICENTER":17.2418,"MEAN_ANOMALY":133.9216,"EPHEMERIS_TYPE":0,"CLASSIFICATION_TYPE":"U","NORAD_CAT_ID":34856,"ELEMENT_SET_NO":999,"REV_AT_EPOCH":90427,"BSTAR":0.0017835642,"MEAN_MOTION_DOT":0.00030525,"MEAN_MOTION_DDOT":0}]
